<?xml version="1.0" encoding="UTF-8"?>
<ndm xmlns:xsi="http://www.w3.org/2001/XMLSchema-instance" xsi:noNamespaceSchemaLocation="https://sanaregistry.org/r/ndmxml_unqualified/ndmxml-2.0.0-master-2.0.xsd">
<omm id="CCSDS_OMM_VERS" version="2.0">
<header><CREATION_DATE/><ORIGINATOR/></header><body><segment><metadata><OBJECT_NAME>COSMOS 1455</OBJECT_NAME><OBJECT_ID>1983-037A</OBJECT_ID><CENTER_NAME>EARTH</CENTER_NAME><REF_FRAME>TEME</REF_FRAME><TIME_SYSTEM>UTC</TIME_SYSTEM><MEAN_ELEMENT_THEORY>SGP4</MEAN_ELEMENT_THEORY></metadata><data><meanElements><EPOCH>2022-06-05T01:54:16.679808</EPOCH><MEAN_MOTION>15.20619874</MEAN_MOTION><ECCENTRICITY>.0018323</ECCENTRICITY><INCLINATION>82.5145</INCLINATION><RA_OF_ASC_NODE>92.8306</RA_OF_ASC_NODE><ARG_OF_PERICENTER>87.8086</ARG_OF_PERICENTER><MEAN_ANOMALY>272.5247</MEAN_ANOMALY></meanElements><tleParameters><EPHEMERIS_TYPE>0</EPHEMERIS_TYPE><CLASSIFICATION_TYPE>U</CLASSIFICATION_TYPE><NORAD_CAT_ID>14032</NORAD_CAT_ID><ELEMENT_SET_NO>999</ELEMENT_SET_NO><REV_AT_EPOCH>13659</REV_AT_EPOCH><BSTAR>.12751E-3</BSTAR><MEAN_MOTION_DOT>.284E-4</MEAN_MOTION_DOT><MEAN_MOTION_DDOT>0</MEAN_MOTION_DDOT></tleParameters></data></segment></body></omm>
<omm id="CCSDS_OMM_VERS" version="2.0">
<header><CREATION_DATE/><ORIGINATOR/></header><body><segment><metadata><OBJECT_NAME>SL-3 R/B</OBJECT_NAME><OBJECT_ID>1983-075B</OBJECT_ID><CENTER_NAME>EARTH</CENTER_NAME><REF_FRAME>TEME</REF_FRAME><TIME_SYSTEM>UTC</TIME_SYSTEM><MEAN_ELEMENT_THEORY>SGP4</MEAN_ELEMENT_THEORY></metadata><data><meanElements><EPOCH>2022-06-05T04:18:29.027232</EPOCH><MEAN_MOTION>15.12557667</MEAN_MOTION><ECCENTRICITY>.0037374</ECCENTRICITY><INCLINATION>97.4815</INCLINATION><RA_OF_ASC_NODE>131.5793</RA_OF_ASC_NODE><ARG_OF_PERICENTER>355.8662</ARG_OF_PERICENTER><MEAN_ANOMALY>4.2255</MEAN_ANOMALY></meanElements><tleParameters><EPHEMERIS_TYPE>0</EPHEMERIS_TYPE><CLASSIFICATION_TYPE>U</CLASSIFICATION_TYPE><NORAD_CAT_ID>14208</NORAD_CAT_ID><ELEMENT_SET_NO>999</ELEMENT_SET_NO><REV_AT_EPOCH>12144</REV_AT_EPOCH><BSTAR>.91636E-4</BSTAR><MEAN_MOTION_DOT>.1557E-4</MEAN_MOTION_DOT><MEAN_MOTION_DDOT>0</MEAN_MOTION_DDOT></tleParameters></data></segment></body></omm>
<omm id="CCSDS_OMM_VERS" version="2.0">
<header><CREATION_DATE/><ORIGINATOR/></header><body><segment><metadata><OBJECT_NAME>COSMOS 1500</OBJECT_NAME><OBJECT_ID>1983-099A</OBJECT_ID><CENTER_NAME>EARTH</CENTER_NAME><REF_FRAME>TEME</REF_FRAME><TIME_SYSTEM>UTC</TIME_SYSTEM><MEAN_ELEMENT_THEORY>SGP4</MEAN_ELEMENT_THEORY></metadata><data><meanElements><EPOCH>2022-06-04T11:56:41.426880</EPOCH><MEAN_MOTION>15.21238165</MEAN_MOTION><ECCENTRICITY>.0012776</ECCENTRICITY><INCLINATION>82.5143</INCLINATION><RA_OF_ASC_NODE>348.2897</RA_OF_ASC_NODE><ARG_OF_PERICENTER>249.8925</ARG_OF_PERICENTER><MEAN_ANOMALY>110.0936</MEAN_ANOMALY></meanElements><tleParameters><EPHEMERIS_TYPE>0</EPHEMERIS_TYPE><CLASSIFICATION_TYPE>U</CLASSIFICATION_TYPE><NORAD_CAT_ID>14372</NORAD_CAT_ID><ELEMENT_SET_NO>999</ELEMENT_SET_NO><REV_AT_EPOCH>11264</REV_AT_EPOCH><BSTAR>.11127E-3</BSTAR><MEAN_MOTION_DOT>.2521E-4</MEAN_MOTION_DOT><MEAN_MOTION_DDOT>0</MEAN_MOTION_DDOT></tleParameters></data></segment></body></omm>
<omm id="CCSDS_OMM_VERS" version="2.0">
<header><CREATION_DATE/><ORIGINATOR/></header><body><segment><metadata><OBJECT_NAME>COSMOS 1536</OBJECT_NAME><OBJECT_ID>1984-013A</OBJECT_ID><CENTER_NAME>EARTH</CENTER_NAME><REF_FRAME>TEME</REF_FRAME><TIME_SYSTEM>UTC</TIME_SYSTEM><MEAN_ELEMENT_THEORY>SGP4</MEAN_ELEMENT_THEORY></metadata><data><meanElements><EPOCH>2022-06-04T20:53:28.174272</EPOCH><MEAN_MOTION>15.06560398</MEAN_MOTION><ECCENTRICITY>.0012745</ECCENTRICITY><INCLINATION>82.5252</INCLINATION><RA_OF_ASC_NODE>12.2750</RA_OF_ASC_NODE><ARG_OF_PERICENTER>353.3875</ARG_OF_PERICENTER><MEAN_ANOMALY>6.7182</MEAN_ANOMALY></meanElements><tleParameters><EPHEMERIS_TYPE>0</EPHEMERIS_TYPE><CLASSIFICATION_TYPE>U</CLASSIFICATION_TYPE><NORAD_CAT_ID>14699</NORAD_CAT_ID><ELEMENT_SET_NO>999</ELEMENT_SET_NO><REV_AT_EPOCH>6483</REV_AT_EPOCH><BSTAR>.92085E-4</BSTAR><MEAN_MOTION_DOT>.1393E-4</MEAN_MOTION_DOT><MEAN_MOTION_DDOT>0</MEAN_MOTION_DDOT></tleParameters></data></segment></body></omm>
<omm id="CCSDS_OMM_VERS" version="2.0">
<header><CREATION_DATE/><ORIGINATOR/></header><body><segment><metadata><OBJECT_NAME>COSMOS 1544</OBJECT_NAME><OBJECT_ID>1984-027A</OBJECT_ID><CENTER_NAME>EARTH</CENTER_NAME><REF_FRAME>TEME</REF_FRAME><TIME_SYSTEM>UTC</TIME_SYSTEM><MEAN_ELEMENT_THEORY>SGP4</MEAN_ELEMENT_THEORY></metadata><data><meanElements><EPOCH>2022-06-04T20:15:20.569248</EPOCH><MEAN_MOTION>15.32174339</MEAN_MOTION><ECCENTRICITY>.0013276</ECCENTRICITY><INCLINATION>82.4807</INCLINATION><RA_OF_ASC_NODE>359.0267</RA_OF_ASC_NODE><ARG_OF_PERICENTER>116.2240</ARG_OF_PERICENTER><MEAN_ANOMALY>244.0368</MEAN_ANOMALY></meanElements><tleParameters><EPHEMERIS_TYPE>0</EPHEMERIS_TYPE><CLASSIFICATION_TYPE>U</CLASSIFICATION_TYPE><NORAD_CAT_ID>14819</NORAD_CAT_ID><ELEMENT_SET_NO>999</ELEMENT_SET_NO><REV_AT_EPOCH>9247</REV_AT_EPOCH><BSTAR>.16443E-3</BSTAR><MEAN_MOTION_DOT>.5154E-4</MEAN_MOTION_DOT><MEAN_MOTION_DDOT>0</MEAN_MOTION_DDOT></tleParameters></data></segment></body></omm>
<omm id="CCSDS_OMM_VERS" version="2.0">
<header><CREATION_DATE/><ORIGINATOR/></header><body><segment><metadata><OBJECT_NAME>SL-14 R/B</OBJECT_NAME><OBJECT_ID>1984-027B</OBJECT_ID><CENTER_NAME>EARTH</CENTER_NAME><REF_FRAME>TEME</REF_FRAME><TIME_SYSTEM>UTC</TIME_SYSTEM><MEAN_ELEMENT_THEORY>SGP4</MEAN_ELEMENT_THEORY></metadata><data><meanElements><EPOCH>2022-06-04T12:46:53.013792</EPOCH><MEAN_MOTION>14.83828527</MEAN_MOTION><ECCENTRICITY>.0018226</ECCENTRICITY><INCLINATION>82.5427</INCLINATION><RA_OF_ASC_NODE>91.2484</RA_OF_ASC_NODE><ARG_OF_PERICENTER>192.0095</ARG_OF_PERICENTER><MEAN_ANOMALY>168.0688</MEAN_ANOMALY></meanElements><tleParameters><EPHEMERIS_TYPE>0</EPHEMERIS_TYPE><CLASSIFICATION_TYPE>U</CLASSIFICATION_TYPE><NORAD_CAT_ID>14820</NORAD_CAT_ID><ELEMENT_SET_NO>999</ELEMENT_SET_NO><REV_AT_EPOCH>4372</REV_AT_EPOCH><BSTAR>.21835E-4</BSTAR><MEAN_MOTION_DOT>.205E-5</MEAN_MOTION_DOT><MEAN_MOTION_DDOT>0</MEAN_MOTION_DDOT></tleParameters></data></segment></body></omm>
<omm id="CCSDS_OMM_VERS" version="2.0">
<header><CREATION_DATE/><ORIGINATOR/></header><body><segment><metadata><OBJECT_NAME>ERBS</OBJECT_NAME><OBJECT_ID>1984-108B</OBJECT_ID><CENTER_NAME>EARTH</CENTER_NAME><REF_FRAME>TEME</REF_FRAME><TIME_SYSTEM>UTC</TIME_SYSTEM><MEAN_ELEMENT_THEORY>SGP4</MEAN_ELEMENT_THEORY></metadata><data><meanElements><EPOCH>2022-06-04T18:40:45.271200</EPOCH><MEAN_MOTION>15.65237308</MEAN_MOTION><ECCENTRICITY>.001151</ECCENTRICITY><INCLINATION>56.9979</INCLINATION><RA_OF_ASC_NODE>179.1569</RA_OF_ASC_NODE><ARG_OF_PERICENTER>27.5559</ARG_OF_PERICENTER><MEAN_ANOMALY>332.6114</MEAN_ANOMALY></meanElements><tleParameters><EPHEMERIS_TYPE>0</EPHEMERIS_TYPE><CLASSIFICATION_TYPE>U</CLASSIFICATION_TYPE><NORAD_CAT_ID>15354</NORAD_CAT_ID><ELEMENT_SET_NO>999</ELEMENT_SET_NO><REV_AT_EPOCH>7907</REV_AT_EPOCH><BSTAR>.21897E-3</BSTAR><MEAN_MOTION_DOT>.21632E-3</MEAN_MOTION_DOT><MEAN_MOTION_DDOT>0</MEAN_MOTION_DDOT></tleParameters></data></segment></body></omm>
<omm id="CCSDS_OMM_VERS" version="2.0">
<header><CREATION_DATE/><ORIGINATOR/></header><body><segment><metadata><OBJECT_NAME>SL-8 R/B</OBJECT_NAME><OBJECT_ID>1985-006B</OBJECT_ID><CENTER_NAME>EARTH</CENTER_NAME><REF_FRAME>TEME</REF_FRAME><TIME_SYSTEM>UTC</TIME_SYSTEM><MEAN_ELEMENT_THEORY>SGP4</MEAN_ELEMENT_THEORY></metadata><data><meanElements><EPOCH>2022-06-04T18:39:57.080736</EPOCH><MEAN_MOTION>14.36471690</MEAN_MOTION><ECCENTRICITY>.0018326</ECCENTRICITY><INCLINATION>74.0460</INCLINATION><RA_OF_ASC_NODE>266.2473</RA_OF_ASC_NODE><ARG_OF_PERICENTER>163.0943</ARG_OF_PERICENTER><MEAN_ANOMALY>358.9058</MEAN_ANOMALY></meanElements><tleParameters><EPHEMERIS_TYPE>0</EPHEMERIS_TYPE><CLASSIFICATION_TYPE>U</CLASSIFICATION_TYPE><NORAD_CAT_ID>15483</NORAD_CAT_ID><ELEMENT_SET_NO>999</ELEMENT_SET_NO><REV_AT_EPOCH>95665</REV_AT_EPOCH><BSTAR>.47185E-4</BSTAR><MEAN_MOTION_DOT>.113E-5</MEAN_MOTION_DOT><MEAN_MOTION_DDOT>0</MEAN_MOTION_DDOT></tleParameters></data></segment></body></omm>

</ndm>
