COSMOS 1455             
1 14032U 83037A   22156.07935972  .00002840  00000+0  12751-3 0  9991
2 14032  82.5145  92.8306 0018323  87.8086 272.5247 15.20619874136595
SL-3 R/B                
1 14208U 83075B   22156.17950263  .00001557  00000+0  91636-4 0  9993
2 14208  97.4815 131.5793 0037374 355.8662   4.2255 15.12557667121444
COSMOS 1500             
1 14372U 83099A   22155.49770170  .00002521  00000+0  11127-3 0  9990
2 14372  82.5143 348.2897 0012776 249.8925 110.0936 15.21238165112643
COSMOS 1536             
1 14699U 84013A   22155.87046498  .00001393  00000+0  92085-4 0  9999
2 14699  82.5252  12.2750 0012745 353.3875   6.7182 15.06560398 64833
COSMOS 1544             
1 14819U 84027A   22155.84398807  .00005154  00000+0  16443-3 0  9991
2 14819  82.4807 359.0267 0013276 116.2240 244.0368 15.32174339 92478
SL-14 R/B               
1 14820U 84027B   22155.53255803  .00000205  00000+0  21835-4 0  9991
2 14820  82.5427  91.2484 0018226 192.0095 168.0688 14.83828527 43729
ERBS                    
1 15354U 84108B   22155.77830175  .00021632  00000+0  21897-3 0  9995
2 15354  56.9979 179.1569 0011510  27.5559 332.6114 15.65237308 79077
SL-8 R/B                
1 15483U 85006B   22155.77774399  .00000113  00000+0  47185-4 0  9991
2 15483  74.0460 266.2473 0018326 163.0943 358.9058 14.36471690956650
